{
  "type": "FeatureCollection",
  "features": [
    {
      "type": "Feature",
      "properties": {
        "norad_id": 30368,
        "name": "FENGYUN 1C DEB",
        "group": "fengyun-1c-debris",
        "lat": -79.67978512535238,
        "lon": -152.30925160919548,
        "alt_km": 896.3024712782353,
        "timestamp": "2025-12-10T09:57:44.975200+00:00",
        "meta_object_name": "FENGYUN 1C DEB",
        "meta_object_id": "1999-025ACF",
        "meta_epoch": "2025-12-09T13:32:10.444992",
        "meta_mean_motion": 13.75360815,
        "meta_eccentricity": 0.0186063,
        "meta_inclination": 99.1884,
        "meta_ra_of_asc_node": 89.5997,
        "meta_arg_of_pericenter": 316.4575,
        "meta_mean_anomaly": 58.6375,
        "meta_ephemeris_type": 0,
        "meta_classification_type": "U",
        "meta_norad_cat_id": 30368,
        "meta_element_set_no": 999,
        "meta_rev_at_epoch": 94618,
        "meta_bstar": 0.0006662,
        "meta_mean_motion_dot": 6.82e-06,
        "meta_mean_motion_ddot": 0,
        "tle_line1": "1 30368U 99025ACF 25343.56400978  .00000682  00000+0  66620-3 0  9999",
        "tle_line2": "2 30368  99.1884  89.5997 0186063 316.4575  58.6375 13.75360815946184"
      },
      "geometry": {
        "type": "Point",
        "coordinates": [
          -152.30925160919548,
          -79.67978512535238
        ]
      }
    },
    {
      "type": "Feature",
      "properties": {
        "norad_id": 30369,
        "name": "FENGYUN 1C DEB",
        "group": "fengyun-1c-debris",
        "lat": -16.417460247825403,
        "lon": 159.24112605822526,
        "alt_km": 785.8156838530094,
        "timestamp": "2025-12-10T09:57:44.975210+00:00",
        "meta_object_name": "FENGYUN 1C DEB",
        "meta_object_id": "1999-025ACG",
        "meta_epoch": "2025-12-09T18:33:09.309024",
        "meta_mean_motion": 14.12054288,
        "meta_eccentricity": 0.0099073,
        "meta_inclination": 98.7212,
        "meta_ra_of_asc_node": 341.2088,
        "meta_arg_of_pericenter": 203.9667,
        "meta_mean_anomaly": 330.5236,
        "meta_ephemeris_type": 0,
        "meta_classification_type": "U",
        "meta_norad_cat_id": 30369,
        "meta_element_set_no": 999,
        "meta_rev_at_epoch": 97204,
        "meta_bstar": 0.00031382,
        "meta_mean_motion_dot": 5.59e-06,
        "meta_mean_motion_ddot": 0,
        "tle_line1": "1 30369U 99025ACG 25343.77302441  .00000559  00000+0  31382-3 0  9999",
        "tle_line2": "2 30369  98.7212 341.2088 0099073 203.9667 330.5236 14.12054288972048"
      },
      "geometry": {
        "type": "Point",
        "coordinates": [
          159.24112605822526,
          -16.417460247825403
        ]
      }
    },
    {
      "type": "Feature",
      "properties": {
        "norad_id": 30370,
        "name": "FENGYUN 1C DEB",
        "group": "fengyun-1c-debris",
        "lat": 61.74715813024773,
        "lon": 23.04769428683604,
        "alt_km": 832.8652913235437,
        "timestamp": "2025-12-10T09:57:44.975220+00:00",
        "meta_object_name": "FENGYUN 1C DEB",
        "meta_object_id": "1999-025ACH",
        "meta_epoch": "2025-12-09T15:46:13.749312",
        "meta_mean_motion": 14.19127306,
        "meta_eccentricity": 0.009923,
        "meta_inclination": 99.0561,
        "meta_ra_of_asc_node": 39.5382,
        "meta_arg_of_pericenter": 326.2174,
        "meta_mean_anomaly": 185.4664,
        "meta_ephemeris_type": 0,
        "meta_classification_type": "U",
        "meta_norad_cat_id": 30370,
        "meta_element_set_no": 999,
        "meta_rev_at_epoch": 97050,
        "meta_bstar": 0.0017948,
        "meta_mean_motion_dot": 3.898e-05,
        "meta_mean_motion_ddot": 0,
        "tle_line1": "1 30370U 99025ACH 25343.65710358  .00003898  00000+0  17948-2 0  9998",
        "tle_line2": "2 30370  99.0561  39.5382 0099230 326.2174 185.4664 14.19127306970502"
      },
      "geometry": {
        "type": "Point",
        "coordinates": [
          23.04769428683604,
          61.74715813024773
        ]
      }
    },
    {
      "type": "Feature",
      "properties": {
        "norad_id": 30371,
        "name": "FENGYUN 1C DEB",
        "group": "fengyun-1c-debris",
        "lat": -13.10679805013355,
        "lon": 29.464262871834155,
        "alt_km": 790.4648700894531,
        "timestamp": "2025-12-10T09:57:44.975230+00:00",
        "meta_object_name": "FENGYUN 1C DEB",
        "meta_object_id": "1999-025ACJ",
        "meta_epoch": "2025-12-09T02:22:29.333568",
        "meta_mean_motion": 14.30201712,
        "meta_eccentricity": 0.00070255,
        "meta_inclination": 98.5759,
        "meta_ra_of_asc_node": 26.1539,
        "meta_arg_of_pericenter": 348.4204,
        "meta_mean_anomaly": 65.7725,
        "meta_ephemeris_type": 0,
        "meta_classification_type": "U",
        "meta_norad_cat_id": 30371,
        "meta_element_set_no": 999,
        "meta_rev_at_epoch": 97851,
        "meta_bstar": 0.0013076775,
        "meta_mean_motion_dot": 3.345e-05,
        "meta_mean_motion_ddot": 0,
        "tle_line1": "1 30371U 99025ACJ 25343.09895062  .00003345  00000+0  13077-2 0  9999",
        "tle_line2": "2 30371  98.5759  26.1539 0007025 348.4204  65.7725 14.30201712978517"
      },
      "geometry": {
        "type": "Point",
        "coordinates": [
          29.464262871834155,
          -13.10679805013355
        ]
      }
    },
    {
      "type": "Feature",
      "properties": {
        "norad_id": 30374,
        "name": "FENGYUN 1C DEB",
        "group": "fengyun-1c-debris",
        "lat": 6.65153976136822,
        "lon": 28.763319284967235,
        "alt_km": 663.6074114800922,
        "timestamp": "2025-12-10T09:57:44.975240+00:00",
        "meta_object_name": "FENGYUN 1C DEB",
        "meta_object_id": "1999-025ACM",
        "meta_epoch": "2025-12-09T09:18:41.285376",
        "meta_mean_motion": 14.61191892,
        "meta_eccentricity": 0.00392069,
        "meta_inclination": 99.2724,
        "meta_ra_of_asc_node": 206.522,
        "meta_arg_of_pericenter": 178.4546,
        "meta_mean_anomaly": 354.7886,
        "meta_ephemeris_type": 0,
        "meta_classification_type": "U",
        "meta_norad_cat_id": 30374,
        "meta_element_set_no": 999,
        "meta_rev_at_epoch": 98873,
        "meta_bstar": 0.0022928831,
        "meta_mean_motion_dot": 0.00011376,
        "meta_mean_motion_ddot": 0,
        "tle_line1": "1 30374U 99025ACM 25343.38797784  .00011376  00000+0  22929-2 0  9995",
        "tle_line2": "2 30374  99.2724 206.5220 0039206 178.4546 354.7886 14.61191892988732"
      },
      "geometry": {
        "type": "Point",
        "coordinates": [
          28.763319284967235,
          6.65153976136822
        ]
      }
    },
    {
      "type": "Feature",
      "properties": {
        "norad_id": 30377,
        "name": "FENGYUN 1C DEB",
        "group": "fengyun-1c-debris",
        "lat": 49.72645178134944,
        "lon": -165.37501823320764,
        "alt_km": 961.1397250964746,
        "timestamp": "2025-12-10T09:57:44.975250+00:00",
        "meta_object_name": "FENGYUN 1C DEB",
        "meta_object_id": "1999-025ACQ",
        "meta_epoch": "2025-12-09T00:59:41.972928",
        "meta_mean_motion": 13.9916537,
        "meta_eccentricity": 0.01181974,
        "meta_inclination": 98.8938,
        "meta_ra_of_asc_node": 2.6413,
        "meta_arg_of_pericenter": 276.9809,
        "meta_mean_anomaly": 137.9495,
        "meta_ephemeris_type": 0,
        "meta_classification_type": "U",
        "meta_norad_cat_id": 30377,
        "meta_element_set_no": 999,
        "meta_rev_at_epoch": 96155,
        "meta_bstar": 0.00044564416,
        "meta_mean_motion_dot": 6.42e-06,
        "meta_mean_motion_ddot": 0,
        "tle_line1": "1 30377U 99025ACQ 25343.04145802  .00000642  00000+0  44564-3 0  9993",
        "tle_line2": "2 30377  98.8938   2.6413 0118197 276.9809 137.9495 13.99165370961559"
      },
      "geometry": {
        "type": "Point",
        "coordinates": [
          -165.37501823320764,
          49.72645178134944
        ]
      }
    },
    {
      "type": "Feature",
      "properties": {
        "norad_id": 30379,
        "name": "FENGYUN 1C DEB",
        "group": "fengyun-1c-debris",
        "lat": 6.129655770009752,
        "lon": -179.82559501553447,
        "alt_km": 877.8723605523555,
        "timestamp": "2025-12-10T09:57:44.975260+00:00",
        "meta_object_name": "FENGYUN 1C DEB",
        "meta_object_id": "1999-025ACS",
        "meta_epoch": "2025-12-09T13:23:46.014144",
        "meta_mean_motion": 14.08030224,
        "meta_eccentricity": 0.0035509,
        "meta_inclination": 98.7584,
        "meta_ra_of_asc_node": 358.3944,
        "meta_arg_of_pericenter": 288.421,
        "meta_mean_anomaly": 224.3407,
        "meta_ephemeris_type": 0,
        "meta_classification_type": "U",
        "meta_norad_cat_id": 30379,
        "meta_element_set_no": 999,
        "meta_rev_at_epoch": 96772,
        "meta_bstar": 0.00048277,
        "meta_mean_motion_dot": 7.83e-06,
        "meta_mean_motion_ddot": 0,
        "tle_line1": "1 30379U 99025ACS 25343.55817146  .00000783  00000+0  48277-3 0  9999",
        "tle_line2": "2 30379  98.7584 358.3944 0035509 288.4210 224.3407 14.08030224967725"
      },
      "geometry": {
        "type": "Point",
        "coordinates": [
          -179.82559501553447,
          6.129655770009752
        ]
      }
    }
  ]
}